METOP-A                 
1 29499U 06044A   26068.94609663  .00002062  00000+0  24291-3 0  9992
2 29499  98.3242 172.6157 0175382  26.1658 115.6820 14.75579804 10819
PERSEUS-M1              
1 40039U 14033AF  26068.74096275  .00002357  00000+0  21948-3 0  9992
2 40039  97.9555  11.3245 0010057 268.3220  91.6848 14.95254642635776
